AO-85
1 40967U 15058D   16070.33308864  .00002371  00000-0  26195-3 0 00657
2 40967 064.7791 185.5709 0212982 236.0652 122.0044 14.74839355008690
